VNREDSAT 1              
1 39160U 13021B   24269.47087420  .00001854  00000+0  36262-3 0  9990
2 39160  97.9872 333.3025 0001196  87.2466 272.8873 14.63976804608124
ARIRANG-5 (KOMPSAT-5)   
1 39227U 13042A   24269.46449430  .00005622  00000+0  40624-3 0  9993
2 39227  97.6213  93.9698 0002956 109.2391 250.9155 15.04457995609230
SKYSAT-A                
1 39418U 13066C   24268.57525284  .00007103  00000+0  48296-3 0  9993
2 39418  97.4762 325.8908 0023544 327.8837  32.0955 15.06412130593300
DUBAISAT-2              
1 39419U 13066D   24269.48926889  .00010579  00000+0  80959-3 0  9994
2 39419  97.4267 269.9503 0013974  29.6443 330.5572 15.01988037591573
GPM-CORE                
1 39574U 14009C   24268.76575325  .00016993  00000+0  36446-3 0  9997
2 39574  64.9820 259.6393 0011788 271.1652  88.8139 15.44798218600434
SENTINEL-1A             
1 39634U 14016A   24269.33343711  .00000621  00000+0  14136-3 0  9991
2 39634  98.1832 274.9910 0001383  90.1977 269.9381 14.59201930558198
KAZEOSAT 1              
1 39731U 14024A   24269.47885122  .00000749  00000+0  24130-3 0  9996
2 39731  98.3876 344.2492 0001111  89.4259 270.7058 14.42017901547852
ALOS-2                  
1 39766U 14029A   24269.54497214  .00007815  00000+0  10521-2 0  9997
2 39766  97.9218   4.7485 0001390 102.7590 257.3777 14.79476972558512
KAZEOSAT 2              
1 40010U 14033A   24269.54142611  .00001660  00000+0  21113-3 0  9996
2 40010  97.6048 129.8215 0010432 235.5503 124.4726 14.82831179555546
HODOYOSHI-4             
1 40011U 14033B   24269.52886254  .00004410  00000+0  52122-3 0  9993
2 40011  97.5719 114.2664 0023740 227.0364 132.8861 14.84932117555251
DEIMOS-2                
1 40013U 14033D   24269.50569781  .00005910  00000+0  62295-3 0  9994
2 40013  97.6643 153.1310 0001130  83.3976 276.7371 14.89692554556697
HODOYOSHI-3             
1 40015U 14033F   24268.77934061  .00003978  00000+0  50318-3 0  9996
2 40015  97.5994  89.4621 0033516 268.6752  91.0623 14.81977220554128
SPOT 7                  
1 40053U 14034A   24269.49461102  .00001537  00000+0  33216-3 0  9997
2 40053  98.1485 334.5658 0001446  83.9006 276.2359 14.59688803545240
SKYSAT-B                
1 40072U 14037D   24269.48446648  .00003665  00000+0  43916-3 0  9990
2 40072  98.3261 185.6815 0006719 145.0339 215.1316 14.84738245552485
WORLDVIEW-3 (WV-3)      
1 40115U 14048A   24269.20261140  .00002983  00000+0  36318-3 0  9992
2 40115  97.8687 341.1730 0005109 242.8692 117.2002 14.84165612548441
GAOFEN-2                
1 40118U 14049A   24269.50549465  .00003166  00000+0  42067-3 0  9990
2 40118  98.1012 320.3643 0008230  99.8445 260.3696 14.80468785546075
YAOGAN-21               
1 40143U 14053A   24269.52206300  .00019896  00000+0  83469-3 0  9991
2 40143  97.2417 324.1920 0007229 181.6581 178.4634 15.23493005559098
YAOGAN-22               
1 40275U 14063A   24269.09422223  .00000035  00000+0  21615-3 0  9994
2 40275 100.6786  41.6660 0006564 165.2483 194.8821 13.15490767476969
ASNARO                  
1 40298U 14070A   24269.50598975  .00028164  00000+0  13235-2 0  9992
2 40298  97.4040 349.1790 0009949 185.0971 175.0164 15.19518790548405
HODOYOSHI-1             
1 40299U 14070B   24269.50860203  .00069355  00000+0  95192-3 0  9999
2 40299  97.1268 328.9007 0006134  45.0677 315.1076 15.57089274550686
YAOGAN-23               
1 40305U 14071A   24269.51004749  .00122737  00000+0  12032-2 0  9999
2 40305  97.6918 262.3134 0005286  96.2769 263.9092 15.65678333548000
YAOGAN-24               
1 40310U 14072A   24269.51214219  .00002998  00000+0  44117-3 0  9997
2 40310  98.0675  33.8272 0014085 122.5900 237.6671 14.76109654530842
CBERS 4                 
1 40336U 14079A   24269.49063501  .00000437  00000+0  16663-3 0  9996
2 40336  98.3907 335.1597 0001779  73.6555 286.4827 14.35511207513636
RESURS-P 2              
1 40360U 14087A   24269.48625307  .00076966  00000+0  66444-3 0  9991
2 40360  97.1445 357.2462 0004242 264.7339  95.3439 15.68990870546731
YAOGAN-26               
1 40362U 14088A   24269.35241991  .00016793  00000+0  68465-3 0  9990
2 40362  97.0809 284.8085 0013247 124.6058 235.6432 15.24430887542556
SMAP                    
1 40376U 15003A   24268.72071190  .00001501  00000+0  29942-3 0  9993
2 40376  98.1311 273.7132 0001824  94.9845 265.1565 14.63402662515414
KOMPSAT-3A              
1 40536U 15014A   24269.51365652  .00021549  00000+0  85181-3 0  9991
2 40536  97.6214 221.2353 0002101  19.0959 341.0357 15.25507453524982
SENTINEL-2A             
1 40697U 15028A   24269.52221840  .00000449  00000+0  18779-3 0  9990
2 40697  98.5702 342.3393 0001034  96.1500 263.9800 14.30818095483692
GAOFEN-8                
1 40701U 15030A   24269.50803375  .00028382  00000+0  11824-2 0  9995
2 40701  97.6675  66.3514 0011214 288.5602  71.4416 15.23628431514928
CARBONITE 1 (CBNT-1)    
1 40718U 15032D   24269.53925067  .00004967  00000+0  67117-3 0  9991
2 40718  97.6530 104.8516 0014950 192.1812 167.9041 14.79399980496095
YAOGAN-27               
1 40878U 15040A   24269.49149947  .00000008  00000+0  13125-3 0  9999
2 40878 100.0831 273.5987 0007800 224.4645 135.5843 13.16027108436332
GAOFEN-9 01             
1 40894U 15047A   24269.49319159  .00003273  00000+0  43229-3 0  9993
2 40894  97.7191 320.3810 0029667  43.8324 316.5236 14.80376251486935
LAPAN-A2                
1 40931U 15052B   24266.31902995  .00001766  00000+0  15051-3 0  9992
2 40931   6.0010  18.5487 0012744  17.3429 342.7134 14.78139828485858
YAOGAN-28               
1 41026U 15064A   24269.53625376  .00020782  00000+0  88227-3 0  9997
2 41026  97.2243  56.0603 0009124 217.9451 142.1144 15.23067921494760
YAOGAN-29               
1 41038U 15069A   24269.51984501  .00001371  00000+0  17976-3 0  9997
2 41038  98.0545 284.5247 0000025 284.5557  75.5652 14.81966871477328
KENT RIDGE 1            
1 41167U 15077B   24269.31388747  .00008526  00000+0  38970-3 0  9993
2 41167  14.9798 249.7868 0009483  29.1711 330.9138 15.16396093485230
TELEOS-1                
1 41169U 15077D   24269.26512537  .00047834  00000+0  12162-2 0  9994
2 41169  14.9776 136.3827 0005256 250.3477 109.6279 15.37670029486241
GAOFEN-4                
1 41194U 15083A   24269.50396708 -.00000351  00000+0  00000+0 0  9995
2 41194   0.0698 293.2414 0001759 322.2244  36.4852  1.00273300 32177
JASON-3                 
1 41240U 16002A   24268.73573291  .00000007  00000+0  29417-3 0  9991
2 41240  66.0452   4.5813 0007988 265.1499  94.8605 12.80930949406259
SENTINEL-3A             
1 41335U 16011A   24269.52027538  .00000414  00000+0  18897-3 0  9994
2 41335  98.6303 334.8703 0000996 106.4879 253.6411 14.26732127448276
ZIYUAN 3-2 (ZY 3-2)     
1 41556U 16033A   24269.46326930  .00017434  00000+0  78841-3 0  9999
2 41556  97.4476 343.8134 0004196 278.8554  81.2206 15.20980534462249
CARTOSAT-2C             
1 41599U 16040A   24269.46724085  .00012697  00000+0  60367-3 0  9997
2 41599  97.4627 327.4196 0013571 170.7174 189.4314 15.19251434458104
SKYSAT-C1               
1 41601U 16040C   24268.84038703  .00019584  00000+0  66850-3 0  9992
2 41601  97.0505 324.2798 0005674  84.7879 275.4010 15.30340353461388
LAPAN-A3                
1 41603U 16040E   24269.51690034  .00007839  00000+0  30237-3 0  9990
2 41603  97.1436 278.7677 0013888 103.5549 256.7239 15.26470169458524
BIROS                   
1 41604U 16040F   24268.79682691  .00026356  00000+0  60686-3 0  9996
2 41604  97.1182 294.6313 0009452  57.3408 302.8751 15.42548390459511
GAOFEN-3                
1 41727U 16049A   24269.47720006  .00000377  00000+0  12753-3 0  9997
2 41727  98.4079 275.6692 0001076  85.4124 274.7189 14.42207581427875
SKYSAT-C4               
1 41771U 16058B   24268.86059851  .00022652  00000+0  67388-3 0  9995
2 41771  96.9988 311.4031 0002747 119.2422 240.9097 15.34729177448503
SKYSAT-C5               
1 41772U 16058C   24268.71888537  .00022893  00000+0  62716-3 0  9998
2 41772  97.1461 321.0660 0002847  76.2128 283.9434 15.37313049446964
SKYSAT-C2               
1 41773U 16058D   24268.85571971  .00019779  00000+0  63470-3 0  9992
2 41773  97.0019 309.6380 0002619 154.9290 205.2080 15.32344676448360
SKYSAT-C3               
1 41774U 16058E   24268.60143356  .00026617  00000+0  63397-3 0  9995
2 41774  96.9988 318.5385 0005396 168.5907 191.5464 15.41557646448950
ALSAT 1B                
1 41785U 16059C   24269.52060920  .00001219  00000+0  20508-3 0  9993
2 41785  97.8133 293.8919 0011059  89.3341 270.9134 14.71233908427954
PATHFINDER 1            
1 41787U 16059E   24269.50177962  .00002104  00000+0  39062-3 0  9997
2 41787  97.8283 286.9435 0030562  54.0701 306.3332 14.65896640427390
SCATSAT 1               
1 41790U 16059H   24269.39431536  .00002537  00000+0  36247-3 0  9990
2 41790  98.2106 313.5585 0059230 111.7351 249.0177 14.76411629423850
GOKTURK 1A              
1 41875U 16073A   24269.51994884  .00001460  00000+0  29533-3 0  9998
2 41875  98.1354 162.5123 0001443  83.7579 276.3787 14.62778093416770
RESOURCESAT-2A          
1 41877U 16074A   24269.51026349  .00000459  00000+0  22861-3 0  9997
2 41877  98.6373 340.9035 0002104  82.9423 277.1994 14.21667723404842
CARTOSAT-2D             
1 41948U 17008A   24268.70892953  .00011303  00000+0  53886-3 0  9997
2 41948  97.4145 326.2517 0005920 279.3337  80.7229 15.19249414421852
SENTINEL-2B             
1 42063U 17013A   24269.48721854  .00000439  00000+0  18413-3 0  9994
2 42063  98.5709 342.2987 0001010  86.2577 273.8721 14.30808741394605
ZHUHAI-1 02 (CAS-4B)    
1 42759U 17034B   24269.54094731  .00042968  00000+0  12805-2 0  9994
2 42759  43.0172  17.3091 0013373 304.8856  55.0741 15.33896639402784
NUSAT-3 (MILANESAT)     
1 42760U 17034C   24269.52864165  .00044891  00000+0  11736-2 0  9999
2 42760  43.0078 359.5702 0016352 329.9822  30.0095 15.37911938403007
ZHUHAI-1 01 (CAS-4A)    
1 42761U 17034D   24269.53300095  .00040400  00000+0  11974-2 0  9994
2 42761  43.0209  15.6155 0013168 315.9122  44.0682 15.34095584402795
